{
    "links": {
        "self": "http://www.neowsapp.com/rest/v1/neo/3768820?api_key=iIulBulltgU6a56xZRHN4H3l9WmuAYTsLGpBGhQ2"
    },
    "id": "3768820",
    "neo_reference_id": "3768820",
    "name": "(2017 CP5)",
    "designation": "2017 CP5",
    "nasa_jpl_url": "http://ssd.jpl.nasa.gov/sbdb.cgi?sstr=3768820",
    "absolute_magnitude_h": 24.8,
    "estimated_diameter": {
        "kilometers": {
            "estimated_diameter_min": 0.0291443905,
            "estimated_diameter_max": 0.0651688382
        },
        "meters": {
            "estimated_diameter_min": 29.1443904535,
            "estimated_diameter_max": 65.1688382168
        },
        "miles": {
            "estimated_diameter_min": 0.018109479,
            "estimated_diameter_max": 0.0404940262
        },
        "feet": {
            "estimated_diameter_min": 95.6180819754,
            "estimated_diameter_max": 213.8085311752
        }
    },
    "is_potentially_hazardous_asteroid": false,
    "close_approach_data": [
        {
            "close_approach_date": "2004-02-06",
            "close_approach_date_full": "2004-Feb-06 03:35",
            "epoch_date_close_approach": 1076038500000,
            "relative_velocity": {
                "kilometers_per_second": "12.239320329",
                "kilometers_per_hour": "44061.553184242",
                "miles_per_hour": "27378.1356438419"
            },
            "miss_distance": {
                "astronomical": "0.1719087067",
                "lunar": "66.8724869063",
                "kilometers": "25717176.356774729",
                "miles": "15979912.3897161002"
            },
            "orbiting_body": "Earth"
        },
        {
            "close_approach_date": "2017-02-11",
            "close_approach_date_full": "2017-Feb-11 23:27",
            "epoch_date_close_approach": 1486855620000,
            "relative_velocity": {
                "kilometers_per_second": "9.1637582465",
                "kilometers_per_hour": "32989.5296875008",
                "miles_per_hour": "20498.4108216585"
            },
            "miss_distance": {
                "astronomical": "0.0953479357",
                "lunar": "37.0903469873",
                "kilometers": "14263848.089616959",
                "miles": "8863144.2134296742"
            },
            "orbiting_body": "Earth"
        },
        {
            "close_approach_date": "2030-02-18",
            "close_approach_date_full": "2030-Feb-18 22:20",
            "epoch_date_close_approach": 1897683600000,
            "relative_velocity": {
                "kilometers_per_second": "7.8190580292",
                "kilometers_per_hour": "28148.6089051041",
                "miles_per_hour": "17490.4509055076"
            },
            "miss_distance": {
                "astronomical": "0.2065665551",
                "lunar": "80.3543899339",
                "kilometers": "30901916.656197637",
                "miles": "19201560.6219639106"
            },
            "orbiting_body": "Earth"
        }
    ],
    "orbital_data": {
        "orbit_id": "2",
        "orbit_determination_date": "2017-04-06 08:20:14",
        "first_observation_date": "2017-01-20",
        "last_observation_date": "2017-02-07",
        "data_arc_in_days": 18,
        "observations_used": 24,
        "orbit_uncertainty": "7",
        "minimum_orbit_intersection": ".0933869",
        "jupiter_tisserand_invariant": "4.427",
        "epoch_osculation": "2459000.5",
        "eccentricity": ".3272717609248764",
        "semi_major_axis": "1.512659488740242",
        "inclination": "14.25970289908341",
        "ascending_node_longitude": "130.689467784663",
        "orbital_period": "679.5324347676072",
        "perihelion_distance": "1.0176087541805",
        "perihelion_argument": "46.69954443565773",
        "aphelion_distance": "2.007710223299984",
        "perihelion_time": "2459188.168974774642",
        "mean_anomaly": "260.5774743600336",
        "mean_motion": ".5297760365524218",
        "equinox": "J2000",
        "orbit_class": {
            "orbit_class_type": "AMO",
            "orbit_class_description": "Near-Earth asteroid orbits similar to that of 1221 Amor",
            "orbit_class_range": "1.017 AU < q (perihelion) < 1.3 AU"
        }
    },
    "is_sentry_object": false
}